{"fetched_at":"2026-03-29T02:12:04Z","count":15717,"tles":[{"name":"KINEIS-2C","line1":"1 62929U 25028B   26087.14437756  .00001253  00000+0  20610-3 0  9997","line2":"2 62929  98.0287 142.0783 0000619 136.6903 223.4353 14.72306821 60689","category":"Other"}]}